LANDSAT 9               
1 49260U 21088A   24051.60907153  .00000710  00000+0  16748-3 0  9999
2 49260  98.2004 123.1565 0001178 110.0595 250.0731 14.57137959127578
